IRIDIUM 26              
1 24903U 97043A   25328.66791818  .00000463  00000+0  14887-3 0  9990
2 24903  86.3974  43.1567 0001963  95.2366 264.9056 14.37306760479798
IRIDIUM 22              
1 24907U 97043E   25328.66143442  .00000417  00000+0  13671-3 0  9997
2 24907  86.3979  46.8370 0002114  98.2330 261.9106 14.36102727479803
DUMMY MASS 1            
1 24925U 97048A   25328.63837625  .00000560  00000+0  59217-4 0  9998
2 24925  86.3351  61.0811 0004607 310.9000  49.1826 14.87158628528978
DUMMY MASS 2            
1 24926U 97048B   25328.69461693  .00000543  00000+0  57640-4 0  9992
2 24926  86.3352  62.6929 0005739 324.3948  35.6894 14.86909294528757
IRIDIUM 29              
1 24944U 97051A   25328.69597315  .00000570  00000+0  18721-3 0  9993
2 24944  86.3950  76.5186 0002279  96.5645 263.5812 14.36638500476318
IRIDIUM 33              
1 24946U 97051C   25328.71636367  .00000432  00000+0  14503-3 0  9990
2 24946  86.3867  75.7859 0005784 274.3320  85.7215 14.35017590475763
IRIDIUM 28              
1 24948U 97051E   25328.70748139  .00000518  00000+0  16638-3 0  9998
2 24948  86.3958  73.9372 0001550  94.4873 265.6501 14.37539211476902
IRIDIUM 36              
1 24967U 97056C   25328.64574108  .00000532  00000+0  17047-3 0  9991
2 24967  86.3945 105.5926 0001890  97.6351 262.5062 14.37759286475272
